[{"OBJECT_NAME":"ONEWEB-0142","OBJECT_ID":"2020-100AG","EPOCH":"2026-03-03T08:08:05.126208","MEAN_MOTION":13.12442794,"ECCENTRICITY":0.0002202,"INCLINATION":87.8995,"RA_OF_ASC_NODE":11.677,"ARG_OF_PERICENTER":75.4165,"MEAN_ANOMALY":284.7207,"EPHEMERIS_TYPE":0,"CLASSIFICATION_TYPE":"U","NORAD_CAT_ID":47288,"ELEMENT_SET_NO":999,"REV_AT_EPOCH":25078,"BSTAR":-0.0010095,"MEAN_MOTION_DOT":-3.5e-6,"MEAN_MOTION_DDOT":0},{"OBJECT_NAME":"ONEWEB-0143","OBJECT_ID":"2020-100AH","EPOCH":"2026-03-03T08:22:30.220896","MEAN_MOTION":13.12443021,"ECCENTRICITY":0.0001824,"INCLINATION":87.8994,"RA_OF_ASC_NODE":11.6712,"ARG_OF_PERICENTER":78.7532,"MEAN_ANOMALY":281.3802,"EPHEMERIS_TYPE":0,"CLASSIFICATION_TYPE":"U","NORAD_CAT_ID":47289,"ELEMENT_SET_NO":999,"REV_AT_EPOCH":25076,"BSTAR":-0.00096348,"MEAN_MOTION_DOT":-3.34e-6,"MEAN_MOTION_DDOT":0},{"OBJECT_NAME":"ONEWEB-0144","OBJECT_ID":"2020-100AJ","EPOCH":"2026-03-03T09:30:48.711168","MEAN_MOTION":13.12451223,"ECCENTRICITY":0.0002294,"INCLINATION":87.8997,"RA_OF_ASC_NODE":11.6316,"ARG_OF_PERICENTER":84.1122,"MEAN_ANOMALY":276.0268,"EPHEMERIS_TYPE":0,"CLASSIFICATION_TYPE":"U","NORAD_CAT_ID":47290,"ELEMENT_SET_NO":999,"REV_AT_EPOCH":25069,"BSTAR":0.0033914,"MEAN_MOTION_DOT":1.233e-5,"MEAN_MOTION_DDOT":0},{"OBJECT_NAME":"ONEWEB-0145","OBJECT_ID":"2020-100AK","EPOCH":"2026-03-03T08:49:21.043488","MEAN_MOTION":13.1244259,"ECCENTRICITY":0.0001934,"INCLINATION":87.8997,"RA_OF_ASC_NODE":11.6756,"ARG_OF_PERICENTER":80.923,"MEAN_ANOMALY":279.2117,"EPHEMERIS_TYPE":0,"CLASSIFICATION_TYPE":"U","NORAD_CAT_ID":47291,"ELEMENT_SET_NO":999,"REV_AT_EPOCH":25088,"BSTAR":0.0004862,"MEAN_MOTION_DOT":1.88e-6,"MEAN_MOTION_DDOT":0},{"OBJECT_NAME":"ONEWEB-0146","OBJECT_ID":"2020-100AL","EPOCH":"2026-03-03T08:44:25.255680","MEAN_MOTION":13.12503771,"ECCENTRICITY":0.0001794,"INCLINATION":87.8995,"RA_OF_ASC_NODE":11.6612,"ARG_OF_PERICENTER":73.9975,"MEAN_ANOMALY":286.1351,"EPHEMERIS_TYPE":0,"CLASSIFICATION_TYPE":"U","NORAD_CAT_ID":47292,"ELEMENT_SET_NO":999,"REV_AT_EPOCH":25079,"BSTAR":-0.034449,"MEAN_MOTION_DOT":-0.00012375,"MEAN_MOTION_DDOT":0},{"OBJECT_NAME":"ONEWEB-0147","OBJECT_ID":"2020-100AM","EPOCH":"2026-03-03T09:45:27.656640","MEAN_MOTION":13.1244139,"ECCENTRICITY":0.0001875,"INCLINATION":87.8999,"RA_OF_ASC_NODE":11.6328,"ARG_OF_PERICENTER":89.3639,"MEAN_ANOMALY":270.7705,"EPHEMERIS_TYPE":0,"CLASSIFICATION_TYPE":"U","NORAD_CAT_ID":47293,"ELEMENT_SET_NO":999,"REV_AT_EPOCH":25069,"BSTAR":-0.00037891,"MEAN_MOTION_DOT":-1.24e-6,"MEAN_MOTION_DDOT":0},{"OBJECT_NAME":"ONEWEB-0115","OBJECT_ID":"2021-025A","EPOCH":"2026-03-03T06:55:57.399456","MEAN_MOTION":13.13469862,"ECCENTRICITY":0.000169,"INCLINATION":87.905,"RA_OF_ASC_NODE":341.2795,"ARG_OF_PERICENTER":79.022,"MEAN_ANOMALY":281.1099,"EPHEMERIS_TYPE":0,"CLASSIFICATION_TYPE":"U","NORAD_CAT_ID":48042,"ELEMENT_SET_NO":999,"REV_AT_EPOCH":23969,"BSTAR":0.000866,"MEAN_MOTION_DOT":3.29e-6,"MEAN_MOTION_DDOT":0},{"OBJECT_NAME":"ONEWEB-0152","OBJECT_ID":"2021-025B","EPOCH":"2026-03-03T07:15:27.364320","MEAN_MOTION":13.13468638,"ECCENTRICITY":0.0001612,"INCLINATION":87.9048,"RA_OF_ASC_NODE":341.2787,"ARG_OF_PERICENTER":80.2698,"MEAN_ANOMALY":279.8613,"EPHEMERIS_TYPE":0,"CLASSIFICATION_TYPE":"U","NORAD_CAT_ID":48043,"ELEMENT_SET_NO":999,"REV_AT_EPOCH":23965,"BSTAR":0.00077319,"MEAN_MOTION_DOT":2.95e-6,"MEAN_MOTION_DDOT":0},{"OBJECT_NAME":"ONEWEB-0153","OBJECT_ID":"2021-025C","EPOCH":"2026-03-03T06:43:46.197984","MEAN_MOTION":13.13470164,"ECCENTRICITY":0.0001834,"INCLINATION":87.904,"RA_OF_ASC_NODE":341.2885,"ARG_OF_PERICENTER":77.6257,"MEAN_ANOMALY":282.5078,"EPHEMERIS_TYPE":0,"CLASSIFICATION_TYPE":"U","NORAD_CAT_ID":48044,"ELEMENT_SET_NO":999,"REV_AT_EPOCH":23964,"BSTAR":0.00027119,"MEAN_MOTION_DOT":1.12e-6,"MEAN_MOTION_DDOT":0},{"OBJECT_NAME":"ONEWEB-0154","OBJECT_ID":"2021-025D","EPOCH":"2026-03-03T06:38:53.466144","MEAN_MOTION":13.13470718,"ECCENTRICITY":0.0001734,"INCLINATION":87.904,"RA_OF_ASC_NODE":341.2867,"ARG_OF_PERICENTER":81.9633,"MEAN_ANOMALY":278.1693,"EPHEMERIS_TYPE":0,"CLASSIFICATION_TYPE":"U","NORAD_CAT_ID":48045,"ELEMENT_SET_NO":999,"REV_AT_EPOCH":23960,"BSTAR":-8.1007e-5,"MEAN_MOTION_DOT":-1.7e-7,"MEAN_MOTION_DDOT":0},{"OBJECT_NAME":"ONEWEB-0116","OBJECT_ID":"2021-025E","EPOCH":"2026-03-03T07:34:57.276480","MEAN_MOTION":13.1346856,"ECCENTRICITY":0.0001632,"INCLINATION":87.9051,"RA_OF_ASC_NODE":341.2666,"ARG_OF_PERICENTER":78.3592,"MEAN_ANOMALY":281.772,"EPHEMERIS_TYPE":0,"CLASSIFICATION_TYPE":"U","NORAD_CAT_ID":48046,"ELEMENT_SET_NO":999,"REV_AT_EPOCH":23975,"BSTAR":0.00012993,"MEAN_MOTION_DOT":6.0e-7,"MEAN_MOTION_DDOT":0},{"OBJECT_NAME":"ONEWEB-0150","OBJECT_ID":"2021-025F","EPOCH":"2026-03-03T07:00:49.933440","MEAN_MOTION":13.13469435,"ECCENTRICITY":0.0001789,"INCLINATION":87.905,"RA_OF_ASC_NODE":341.2686,"ARG_OF_PERICENTER":72.0821,"MEAN_ANOMALY":288.0503,"EPHEMERIS_TYPE":0,"CLASSIFICATION_TYPE":"U","NORAD_CAT_ID":48047,"ELEMENT_SET_NO":999,"REV_AT_EPOCH":23964,"BSTAR":0.00084019,"MEAN_MOTION_DOT":3.2e-6,"MEAN_MOTION_DDOT":0},{"OBJECT_NAME":"ONEWEB-0107","OBJECT_ID":"2021-025G","EPOCH":"2026-03-03T07:03:16.022880","MEAN_MOTION":13.13468976,"ECCENTRICITY":0.0002037,"INCLINATION":87.9049,"RA_OF_ASC_NODE":341.2638,"ARG_OF_PERICENTER":77.7732,"MEAN_ANOMALY":282.3625,"EPHEMERIS_TYPE":0,"CLASSIFICATION_TYPE":"U","NORAD_CAT_ID":48048,"ELEMENT_SET_NO":999,"REV_AT_EPOCH":23962,"BSTAR":0.00083321,"MEAN_MOTION_DOT":3.17e-6,"MEAN_MOTION_DDOT":0},{"OBJECT_NAME":"ONEWEB-0101","OBJECT_ID":"2021-025H","EPOCH":"2026-03-03T06:09:38.326176","MEAN_MOTION":13.13469131,"ECCENTRICITY":0.0001868,"INCLINATION":87.9042,"RA_OF_ASC_NODE":341.2976,"ARG_OF_PERICENTER":81.8617,"MEAN_ANOMALY":278.2724,"EPHEMERIS_TYPE":0,"CLASSIFICATION_TYPE":"U","NORAD_CAT_ID":48049,"ELEMENT_SET_NO":999,"REV_AT_EPOCH":23959,"BSTAR":-0.00079185,"MEAN_MOTION_DOT":-2.76e-6,"MEAN_MOTION_DDOT":0},{"OBJECT_NAME":"ONEWEB-0113","OBJECT_ID":"2021-025J","EPOCH":"2026-03-03T05:48:05.228352","MEAN_MOTION":13.13973733,"ECCENTRICITY":0.0001494,"INCLINATION":87.9051,"RA_OF_ASC_NODE":341.2207,"ARG_OF_PERICENTER":81.6133,"MEAN_ANOMALY":278.5166,"EPHEMERIS_TYPE":0,"CLASSIFICATION_TYPE":"U","NORAD_CAT_ID":48050,"ELEMENT_SET_NO":999,"REV_AT_EPOCH":23969,"BSTAR":8.4381e-5,"MEAN_MOTION_DOT":4.4e-7,"MEAN_MOTION_DDOT":0},{"OBJECT_NAME":"ONEWEB-0112","OBJECT_ID":"2021-025K","EPOCH":"2026-03-03T07:10:35.230368","MEAN_MOTION":13.13469916,"ECCENTRICITY":0.0001945,"INCLINATION":87.9051,"RA_OF_ASC_NODE":341.2601,"ARG_OF_PERICENTER":85.0451,"MEAN_ANOMALY":275.09,"EPHEMERIS_TYPE":0,"CLASSIFICATION_TYPE":"U","NORAD_CAT_ID":48051,"ELEMENT_SET_NO":999,"REV_AT_EPOCH":23969,"BSTAR":0.0010115,"MEAN_MOTION_DOT":3.82e-6,"MEAN_MOTION_DDOT":0},{"OBJECT_NAME":"ONEWEB-0156","OBJECT_ID":"2021-025L","EPOCH":"2026-03-03T07:22:46.246080","MEAN_MOTION":13.13468579,"ECCENTRICITY":0.0001866,"INCLINATION":87.905,"RA_OF_ASC_NODE":341.2697,"ARG_OF_PERICENTER":74.9798,"MEAN_ANOMALY":285.1537,"EPHEMERIS_TYPE":0,"CLASSIFICATION_TYPE":"U","NORAD_CAT_ID":48052,"ELEMENT_SET_NO":999,"REV_AT_EPOCH":23967,"BSTAR":0.00069271,"MEAN_MOTION_DOT":2.66e-6,"MEAN_MOTION_DDOT":0}]
