ONEWEB-0142             
1 47288U 20100AG  26062.33894822 -.00000350  00000+0 -10095-2 0  9993
2 47288  87.8995  11.6770 0002202  75.4165 284.7207 13.12442794250782
ONEWEB-0143             
1 47289U 20100AH  26062.34896089 -.00000334  00000+0 -96348-3 0  9990
2 47289  87.8994  11.6712 0001824  78.7532 281.3802 13.12443021250767
ONEWEB-0144             
1 47290U 20100AJ  26062.39639712  .00001233  00000+0  33914-2 0  9991
2 47290  87.8997  11.6316 0002294  84.1122 276.0268 13.12451223250692
ONEWEB-0145             
1 47291U 20100AK  26062.36760467  .00000188  00000+0  48620-3 0  9990
2 47291  87.8997  11.6756 0001934  80.9230 279.2117 13.12442590250881
ONEWEB-0146             
1 47292U 20100AL  26062.36418120 -.00012375  00000+0 -34449-1 0  9992
2 47292  87.8995  11.6612 0001794  73.9975 286.1351 13.12503771250799
ONEWEB-0147             
1 47293U 20100AM  26062.40657010 -.00000124  00000+0 -37891-3 0  9996
2 47293  87.8999  11.6328 0001875  89.3639 270.7705 13.12441390250695
ONEWEB-0115             
1 48042U 21025A   26062.28885879  .00000329  00000+0  86600-3 0  9995
2 48042  87.9050 341.2795 0001690  79.0220 281.1099 13.13469862239698
ONEWEB-0152             
1 48043U 21025B   26062.30240005  .00000295  00000+0  77319-3 0  9994
2 48043  87.9048 341.2787 0001612  80.2698 279.8613 13.13468638239656
ONEWEB-0153             
1 48044U 21025C   26062.28039581  .00000112  00000+0  27119-3 0  9998
2 48044  87.9040 341.2885 0001834  77.6257 282.5078 13.13470164239647
ONEWEB-0154             
1 48045U 21025D   26062.27700771 -.00000017  00000+0 -81007-4 0  9997
2 48045  87.9040 341.2867 0001734  81.9633 278.1693 13.13470718239608
ONEWEB-0116             
1 48046U 21025E   26062.31594070  .00000060  00000+0  12993-3 0  9999
2 48046  87.9051 341.2666 0001632  78.3592 281.7720 13.13468560239758
ONEWEB-0150             
1 48047U 21025F   26062.29224460  .00000320  00000+0  84019-3 0  9997
2 48047  87.9050 341.2686 0001789  72.0821 288.0503 13.13469435239648
ONEWEB-0107             
1 48048U 21025G   26062.29393545  .00000317  00000+0  83321-3 0  9990
2 48048  87.9049 341.2638 0002037  77.7732 282.3625 13.13468976239623
ONEWEB-0101             
1 48049U 21025H   26062.25669359 -.00000276  00000+0 -79185-3 0  9995
2 48049  87.9042 341.2976 0001868  81.8617 278.2724 13.13469131239595
ONEWEB-0113             
1 48050U 21025J   26062.24172718  .00000044  00000+0  84381-4 0  9990
2 48050  87.9051 341.2207 0001494  81.6133 278.5166 13.13973733239692
ONEWEB-0112             
1 48051U 21025K   26062.29901887  .00000382  00000+0  10115-2 0  9990
2 48051  87.9051 341.2601 0001945  85.0451 275.0900 13.13469916239694
ONEWEB-0156             
1 48052U 21025L   26062.30747970  .00000266  00000+0  69271-3 0  9993
2 48052  87.9050 341.2697 0001866  74.9798 285.1537 13.13468579239672
